ONEWEB-0029             
1 45445U 20020X   25196.39564054  .00000241  00000+0  64411-3 0  9990
2 45445  87.8830  88.1888 0001915  82.1466 277.9879 13.11414187258524
ONEWEB-0068             
1 45446U 20020Y   25196.22680999  .00000664  00000+0  18379-2 0  9990
2 45446  87.8827  88.2113 0001937  83.1602 276.9746 13.11416473258443
ONEWEB-0046             
1 45447U 20020Z   25196.21845380  .00000443  00000+0  12135-2 0  9996
2 45447  87.8831  88.2227 0001673  83.9419 276.1900 13.11419976258452
ONEWEB-0063             
1 45448U 20020AA  25195.71319967 -.00000072  00000+0 -23879-3 0  9996
2 45448  87.8824  88.3217 0001642  76.3538 283.7773 13.11413905258468
ONEWEB-0019             
1 45449U 20020AB  25195.76322890  .00000513  00000+0  14116-2 0  9992
2 45449  87.8830  88.3297 0001956  78.0053 282.1294 13.11417232258315
ONEWEB-0094             
1 45450U 20020AC  25196.20060543  .00000045  00000+0  81948-4 0  9997
2 45450  87.9050  72.9165 0001794  83.2031 276.9305 13.17649496261930
ONEWEB-0087             
1 45451U 20020AD  25195.95212258 -.00000498  00000+0 -14405-2 0  9997
2 45451  87.8822  88.2260 0001884  85.5770 274.5573 13.11415067258383
ONEWEB-0082             
1 45452U 20020AE  25195.94887008 -.00000296  00000+0 -87183-3 0  9998
2 45452  87.8825  88.2502 0002026  81.3714 278.7643 13.11416604258479
ONEWEB-0050             
1 45453U 20020AF  25196.24018557  .00002186  00000+0  21990-3 0  9990
2 45453  87.9988 288.2427 0005161  99.7067 260.4744 14.90781359290214
ONEWEB-0034             
1 45454U 20020AG  25195.97006505 -.00000295  00000+0 -86898-3 0  9999
2 45454  87.8834  88.2657 0001869  77.9061 282.2276 13.11418266258391
ONEWEB-0060             
1 45455U 20020AH  25195.70958447  .00000020  00000+0  19442-4 0  9998
2 45455  87.8828  88.3462 0001697  76.2933 283.8384 13.11147455258317
ONEWEB-0086             
1 45456U 20020AJ  25195.69116186  .00000572  00000+0  15791-2 0  9996
2 45456  87.8824  88.3194 0001951  89.4318 270.7033 13.11418264258373
ONEWEB-0088             
1 45457U 20020AK  25195.74541031 -.00000131  00000+0 -40665-3 0  9996
2 45457  87.8822  88.2569 0001807  80.7781 279.3552 13.11420001258312
ONEWEB-0102             
1 47258U 20100A   25196.54768604 -.00000085  00000+0 -27166-3 0  9991
2 47258  87.8857  57.6241 0001800  77.5114 282.6216 13.12442737220577
ONEWEB-0109             
1 47259U 20100B   25196.17460774 -.00000121  00000+0 -37285-3 0  9992
2 47259  87.8861  57.6679 0001811  78.3471 281.7861 13.12443286220357
ONEWEB-0110             
1 47260U 20100C   25195.59067392  .00000183  00000+0  47377-3 0  9997
2 47260  87.8858  57.7672 0002082  85.1574 274.9792 13.12443773220448
ONEWEB-0111             
1 47261U 20100D   25196.15515020  .00000271  00000+0  71843-3 0  9990
2 47261  87.8858  57.6704 0001767  81.1445 278.9883 13.12443829220353
ONEWEB-0114             
1 47262U 20100E   25196.10975897 -.00000367  00000+0 -10549-2 0  9991
2 47262  87.8853  57.6783 0001744  72.9620 287.1700 13.12447533220305
ONEWEB-0117             
1 47263U 20100F   25195.64419100 -.00000182  00000+0 -54252-3 0  9995
2 47263  87.8864  57.7640 0001851  84.4130 275.7209 13.12440849220258
ONEWEB-0118             
1 47264U 20100G   25196.36277774  .00000311  00000+0  82935-3 0  9996
2 47264  87.8859  57.6212 0001472  75.9892 284.1401 13.12444533220540
ONEWEB-0119             
1 47265U 20100H   25195.62797839 -.00000025  00000+0 -10441-3 0  9991
2 47265  87.8856  57.8070 0001854  82.0398 278.0941 13.12440885220420
ONEWEB-0120             
1 47266U 20100J   25196.33695003 -.00000517  00000+0 -14726-2 0  9996
2 47266  87.8869  57.6612 0001767  77.6746 282.4580 13.12441214220543
ONEWEB-0121             
1 47267U 20100K   25196.17299174 -.00000272  00000+0 -79017-3 0  9991
2 47267  87.8860  57.6643 0001889  83.8246 276.3097 13.12439425220432
ONEWEB-0122             
1 47268U 20100L   25196.54917438 -.00000100  00000+0 -31347-3 0  9997
2 47268  87.8854  57.5941 0001916  79.5486 280.5859 13.12440824220398
ONEWEB-0123             
1 47269U 20100M   25195.62959881 -.00000230  00000+0 -67340-3 0  9990
2 47269  87.8858  57.8051 0001696  81.4992 278.6328 13.12441174220418
ONEWEB-0124             
1 47270U 20100N   25195.61824260  .00000304  00000+0  80950-3 0  9995
2 47270  87.8859  57.8056 0001806  88.4463 271.6872 13.12443133220299
ONEWEB-0125             
1 47271U 20100P   25195.67177287  .00000232  00000+0  60956-3 0  9996
2 47271  87.8864  57.7581 0001575  88.8442 271.2867 13.12445082220365
ONEWEB-0126             
1 47272U 20100Q   25195.69300957  .00000336  00000+0  89808-3 0  9993
2 47272  87.8879  57.7696 0001772  78.9703 281.1625 13.12441328220437
ONEWEB-0127             
1 47273U 20100R   25195.65878983 -.00000308  00000+0 -89271-3 0  9994
2 47273  87.8866  57.7935 0001864  77.5943 282.5394 13.12444175220456
ONEWEB-0128             
1 47274U 20100S   25196.13892667  .00000476  00000+0  12885-2 0  9994
2 47274  87.8865  57.7248 0002040  81.7088 278.4272 13.12444976220534
ONEWEB-0129             
1 47275U 20100T   25195.66041594 -.00000169  00000+0 -50592-3 0  9996
2 47275  87.8863  57.7633 0002107  47.3122 312.8183 13.12444521220408
ONEWEB-0130             
1 47276U 20100U   25196.14543499  .00000382  00000+0  10276-2 0  9991
2 47276  87.8864  57.6675 0002069  81.9792 278.1571 13.12439098220430
ONEWEB-0131             
1 47277U 20100V   25195.68476048  .00000401  00000+0  10785-2 0  9992
2 47277  87.8859  57.7856 0001920  83.9513 276.1834 13.12443706220414
ONEWEB-0132             
1 47278U 20100W   25196.55255311 -.00000225  00000+0 -66023-3 0  9991
2 47278  87.8866  57.6138 0001802  89.7111 270.4224 13.12440502220424
ONEWEB-0133             
1 47279U 20100X   25196.11121042 -.00000484  00000+0 -13800-2 0  9998
2 47279  87.8854  57.6781 0001953  83.8242 276.3108 13.12443443220527
ONEWEB-0134             
1 47280U 20100Y   25195.62310950  .00000138  00000+0  34748-3 0  9992
2 47280  87.8851  57.7593 0002020  78.0833 282.0522 13.12442918220436
ONEWEB-0135             
1 47281U 20100Z   25195.67014967  .00000206  00000+0  53613-3 0  9995
2 47281  87.8859  57.7882 0002280  80.1747 279.9639 13.12445480220466
ONEWEB-0136             
1 47282U 20100AA  25195.68961607  .00000334  00000+0  89376-3 0  9996
2 47282  87.8859  57.7515 0002145  73.7397 286.3967 13.12444008220392
ONEWEB-0137             
1 47283U 20100AB  25195.64743373 -.00000450  00000+0 -12872-2 0  9998
2 47283  87.8860  57.7665 0001625  79.7366 280.3945 13.12442124220291
ONEWEB-0138             
1 47284U 20100AC  25195.62635298  .00000010  00000+0 -79243-5 0  9992
2 47284  87.8855  57.7821 0001863  79.3405 280.7933 13.12442923220371
ONEWEB-0139             
1 47285U 20100AD  25195.66542170  .00000027  00000+0  40582-4 0  9993
2 47285  87.8860  57.7668 0001801  82.4724 277.6609 13.12444896220453
ONEWEB-0140             
1 47286U 20100AE  25196.15352523  .00000302  00000+0  80373-3 0  9997
2 47286  87.8852  57.6538 0001858  79.5932 280.5406 13.12444294220472
ONEWEB-0141             
1 47287U 20100AF  25195.66514477  .00000052  00000+0  10825-3 0  9998
2 47287  87.8855  57.7691 0001445  78.6151 281.5140 13.12444993220407
ONEWEB-0142             
1 47288U 20100AG  25196.34019843 -.00000344  00000+0 -99080-3 0  9998
2 47288  87.8873  57.6408 0001630  73.7940 286.3368 13.12444524220484
ONEWEB-0143             
1 47289U 20100AH  25195.66365511 -.00000203  00000+0 -59966-3 0  9992
2 47289  87.8863  57.7748 0001837  83.3927 276.7411 13.12443598220373
ONEWEB-0144             
1 47290U 20100AJ  25195.63608292 -.00000276  00000+0 -80241-3 0  9997
2 47290  87.8856  57.7614 0001798  73.2235 286.9090 13.12443172220290
ONEWEB-0145             
1 47291U 20100AK  25195.60689606  .00000414  00000+0  11142-2 0  9998
2 47291  87.8857  57.7932 0001823  79.4312 280.7022 13.12443334220486
ONEWEB-0146             
1 47292U 20100AL  25196.51849196  .00000346  00000+0  92626-3 0  9993
2 47292  87.8861  57.5980 0001900  93.3576 266.7770 13.12444609220510
ONEWEB-0147             
1 47293U 20100AM  25196.33194728 -.00000344  00000+0 -99176-3 0  9995
2 47293  87.8860  57.6144 0002041  78.2441 281.8916 13.12441590220384
ONEWEB-0115             
1 48042U 21025A   25196.54691925 -.00000148  00000+0 -44120-3 0  9990
2 48042  87.8948  27.0977 0001812  90.3787 269.7550 13.13470663209416
ONEWEB-0152             
1 48043U 21025B   25195.57014972 -.00000235  00000+0 -67786-3 0  9994
2 48043  87.8952  27.3063 0001893  91.5245 268.6101 13.13471331209246
ONEWEB-0153             
1 48044U 21025C   25196.53845832  .00000002  00000+0 -29728-4 0  9995
2 48044  87.8958  27.1115 0001761  87.9140 272.2191 13.13470274209364
ONEWEB-0154             
1 48045U 21025D   25195.92564758  .00000012  00000+0 -85074-6 0  9992
2 48045  87.8954  27.2327 0001865  88.2624 271.8718 13.13470801209235
ONEWEB-0116             
1 48046U 21025E   25195.58369685  .00000079  00000+0  18253-3 0  9991
2 48046  87.8955  27.2808 0001887  92.6201 267.5144 13.13471325209333
ONEWEB-0150             
1 48047U 21025F   25196.55029529 -.00000293  00000+0 -83665-3 0  9999
2 48047  87.8950  27.0845 0001613  89.8616 270.2698 13.13467881209352
ONEWEB-0107             
1 48048U 21025G   25196.55198906 -.00000265  00000+0 -76191-3 0  9991
2 48048  87.8954  27.0820 0001742  78.7862 281.3463 13.13468144209337
ONEWEB-0101             
1 48049U 21025H   25195.60063167  .00000361  00000+0  95378-3 0  9990
2 48049  87.8956  27.3110 0001893  84.0817 276.0528 13.13470740209183
ONEWEB-0113             
1 48050U 21025J   25195.59931742  .00000282  00000+0  73127-3 0  9993
2 48050  87.8955  27.2629 0001772  93.3838 266.7494 13.13974634209279
ONEWEB-0112             
1 48051U 21025K   25195.94765275 -.00000278  00000+0 -79684-3 0  9990
2 48051  87.8950  27.1992 0001700  89.2241 270.9083 13.13471275209320
